H1 CPF  1  DGF 2022 07 07 11  6881 larets     NONE      
H2   304206 5557    27944 2022 07 07 00 00 00 2022 07 14 00 00 00    30 1 1  0 0 0
H5  0.0650
H9
10 0 59771  75600.000000  0         44285.886      -3668091.234       6024984.407
10 0 59771  75630.000000  0        -23882.008      -3852049.637       5909113.464
10 0 59771  75660.000000  0        -92821.362      -4031802.741       5787207.421
10 0 59771  75690.000000  0       -162443.468      -4207164.270       5659389.521
10 0 59771  75720.000000  0       -232658.091      -4377952.703       5525789.101
10 0 59771  75750.000000  0       -303373.577      -4543991.480       5386541.460
10 0 59771  75780.000000  0       -374496.969      -4705109.188       5241787.740
10 0 59771  75810.000000  0       -445934.127      -4861139.754       5091674.786
10 0 59771  75840.000000  0       -517589.845      -5011922.627       4936355.000
10 0 59771  75870.000000  0       -589367.978      -5157302.956       4775986.192
10 0 59771  75900.000000  0       -661171.562      -5297131.760       4610731.422
10 0 59771  75930.000000  0       -732902.942      -5431266.089       4440758.835
10 0 59771  75960.000000  0       -804463.897      -5559569.184       4266241.491
10 0 59771  75990.000000  0       -875755.775      -5681910.623       4087357.191
10 0 59771  76020.000000  0       -946679.614      -5798166.465       3904288.301
10 0 59771  76050.000000  0      -1017136.284      -5908219.385       3717221.559
10 0 59771  76080.000000  0      -1087026.613      -6011958.804       3526347.894
10 0 59771  76110.000000  0      -1156251.522      -6109281.013       3331862.223
10 0 59771  76140.000000  0      -1224712.159      -6200089.282       3133963.251
10 0 59771  76170.000000  0      -1292310.027      -6284293.967       2932853.273
10 0 59771  76200.000000  0      -1358947.127      -6361812.612       2728737.961
10 0 59771  76230.000000  0      -1424526.083      -6432570.040       2521826.151
10 0 59771  76260.000000  0      -1488950.289      -6496498.435       2312329.629
10 0 59771  76290.000000  0      -1552124.040      -6553537.419       2100462.903
10 0 59771  76320.000000  0      -1613952.668      -6603634.114       1886442.976
10 0 59771  76350.000000  0      -1674342.672      -6646743.192       1670489.113
10 0 59771  76380.000000  0      -1733201.853      -6682826.924       1452822.614
10 0 59771  76410.000000  0      -1790439.437      -6711855.218       1233666.576
10 0 59771  76440.000000  0      -1845966.209      -6733805.642       1013245.656
10 0 59771  76470.000000  0      -1899694.637      -6748663.451        791785.837
10 0 59771  76500.000000  0      -1951538.999      -6756421.590        569514.178
10 0 59771  76530.000000  0      -2001415.505      -6757080.695        346658.580
10 0 59771  76560.000000  0      -2049242.416      -6750649.088        123447.538
10 0 59771  76590.000000  0      -2094940.166      -6737142.753        -99890.097
10 0 59771  76620.000000  0      -2138431.476      -6716585.314       -323125.370
10 0 59771  76650.000000  0      -2179641.466      -6689007.995       -546029.459
10 0 59771  76680.000000  0      -2218497.767      -6654449.578       -768373.921
10 0 59771  76710.000000  0      -2254930.628      -6612956.344       -989930.934
10 0 59771  76740.000000  0      -2288873.020      -6564582.015      -1210473.543
10 0 59771  76770.000000  0      -2320260.737      -6509387.678      -1429775.897
10 0 59771  76800.000000  0      -2349032.494      -6447441.709      -1647613.490
10 0 59771  76830.000000  0      -2375130.019      -6378819.677      -1863763.398
10 0 59771  76860.000000  0      -2398498.145      -6303604.254      -2078004.519
10 0 59771  76890.000000  0      -2419084.895      -6221885.102      -2290117.799
10 0 59771  76920.000000  0      -2436841.563      -6133758.763      -2499886.474
10 0 59771  76950.000000  0      -2451722.790      -6039328.533      -2707096.285
10 0 59771  76980.000000  0      -2463686.640      -5938704.333      -2911535.713
10 0 59771  77010.000000  0      -2472694.668      -5832002.570      -3112996.191
10 0 59771  77040.000000  0      -2478711.979      -5719345.993      -3311272.323
10 0 59771  77070.000000  0      -2481707.293      -5600863.540      -3506162.095
10 0 59771  77100.000000  0      -2481652.998      -5476690.180      -3697467.082
10 0 59771  77130.000000  0      -2478525.197      -5346966.746      -3884992.649
10 0 59771  77160.000000  0      -2472303.756      -5211839.769      -4068548.145
10 0 59771  77190.000000  0      -2462972.345      -5071461.299      -4247947.102
10 0 59771  77220.000000  0      -2450518.470      -4925988.727      -4423007.412
10 0 59771  77250.000000  0      -2434933.508      -4775584.595      -4593551.519
10 0 59771  77280.000000  0      -2416212.733      -4620416.406      -4759406.585
10 0 59771  77310.000000  0      -2394355.334      -4460656.428      -4920404.669
10 0 59771  77340.000000  0      -2369364.434      -4296481.498      -5076382.883
10 0 59771  77370.000000  0      -2341247.105      -4128072.813      -5227183.561
10 0 59771  77400.000000  0      -2310014.368      -3955615.723      -5372654.402
10 0 59771  77430.000000  0      -2275681.202      -3779299.522      -5512648.626
10 0 59771  77460.000000  0      -2238266.540      -3599317.232      -5647025.111
10 0 59771  77490.000000  0      -2197793.256      -3415865.384      -5775648.526
10 0 59771  77520.000000  0      -2154288.162      -3229143.796      -5898389.466
10 0 59771  77550.000000  0      -2107781.983      -3039355.353      -6015124.568
10 0 59771  77580.000000  0      -2058309.336      -2846705.777      -6125736.628
10 0 59771  77610.000000  0      -2005908.705      -2651403.400      -6230114.709
10 0 59771  77640.000000  0      -1950622.406      -2453658.937      -6328154.242
10 0 59771  77670.000000  0      -1892496.553      -2253685.255      -6419757.121
10 0 59771  77700.000000  0      -1831581.019      -2051697.140      -6504831.788
10 0 59771  77730.000000  0      -1767929.390      -1847911.067      -6583293.318
10 0 59771  77760.000000  0      -1701598.918      -1642544.971      -6655063.495
10 0 59771  77790.000000  0      -1632650.465      -1435818.006      -6720070.876
10 0 59771  77820.000000  0      -1561148.451      -1227950.319      -6778250.859
10 0 59771  77850.000000  0      -1487160.787      -1019162.813      -6829545.732
10 0 59771  77880.000000  0      -1410758.816       -809676.916      -6873904.725
10 0 59771  77910.000000  0      -1332017.238       -599714.348      -6911284.054
10 0 59771  77940.000000  0      -1251014.041       -389496.891      -6941646.953
10 0 59771  77970.000000  0      -1167830.419       -179246.159      -6964963.710
10 0 59771  78000.000000  0      -1082550.690         30816.632      -6981211.687
10 0 59771  78030.000000  0       -995262.212        240470.886      -6990375.336
10 0 59771  78060.000000  0       -906055.294        449496.864      -6992446.220
10 0 59771  78090.000000  0       -815023.103        657675.904      -6987423.009
10 0 59771  78120.000000  0       -722261.565        864790.653      -6975311.481
10 0 59771  78150.000000  0       -627869.268       1070625.282      -6956124.509
10 0 59771  78180.000000  0       -531947.359       1274965.707      -6929882.044
10 0 59771  78210.000000  0       -434599.443       1477599.804      -6896611.102
10 0 59771  78240.000000  0       -335931.469       1678317.625      -6856345.733
10 0 59771  78270.000000  0       -236051.618       1876911.615      -6809126.999
10 0 59771  78300.000000  0       -135070.189       2073176.825      -6755002.924
10 0 59771  78330.000000  0        -33099.476       2266911.119      -6694028.457
10 0 59771  78360.000000  0         69746.355       2457915.378      -6626265.418
10 0 59771  78390.000000  0        173351.389       2645993.709      -6551782.439
10 0 59771  78420.000000  0        277598.097       2830953.640      -6470654.898
10 0 59771  78450.000000  0        382367.461       3012606.322      -6382964.851
10 0 59771  78480.000000  0        487539.110       3190766.714      -6288800.939
10 0 59771  78510.000000  0        592991.452       3365253.775      -6188258.317
10 0 59771  78540.000000  0        698601.813       3535890.639      -6081438.556
10 0 59771  78570.000000  0        804246.573       3702504.800      -5968449.552
10 0 59771  78600.000000  0        909801.311       3864928.287      -5849405.427
10 0 59771  78630.000000  0       1015140.944       4022997.835      -5724426.415
10 0 59771  78660.000000  0       1120139.878       4176555.049      -5593638.756
10 0 59771  78690.000000  0       1224672.148       4325446.572      -5457174.571
10 0 59771  78720.000000  0       1328611.571       4469524.236      -5315171.738
10 0 59771  78750.000000  0       1431831.894       4608645.219      -5167773.760
10 0 59771  78780.000000  0       1534206.945       4742672.192      -5015129.626
10 0 59771  78810.000000  0       1635610.783       4871473.456      -4857393.664
10 0 59771  78840.000000  0       1735917.852       4994923.081      -4694725.390
10 0 59771  78870.000000  0       1835003.132       5112901.028      -4527289.354
10 0 59771  78900.000000  0       1932742.290       5225293.273      -4355254.978
10 0 59771  78930.000000  0       2029011.833       5331991.922      -4178796.391
10 0 59771  78960.000000  0       2123689.262       5432895.322      -3998092.260
10 0 59771  78990.000000  0       2216653.223       5527908.162      -3813325.611
10 0 59771  79020.000000  0       2307783.660       5616941.575      -3624683.653
10 0 59771  79050.000000  0       2396961.966       5699913.220      -3432357.586
10 0 59771  79080.000000  0       2484071.136       5776747.375      -3236542.415
10 0 59771  79110.000000  0       2568995.914       5847375.003      -3037436.751
10 0 59771  79140.000000  0       2651622.946       5911733.824      -2835242.612
10 0 59771  79170.000000  0       2731840.924       5969768.378      -2630165.223
99
